{"fetched_at":"2026-03-30T06:02:59Z","count":15439,"tles":[{"name":"STARLINK-4559","line1":"1 53574U 22101AZ  26087.92841137  .00000387  00000+0  42428-4 0  9999","line2":"2 53574  53.2192 327.4685 0001262  92.1796 267.9340 15.08842178199350","category":"Starlink"}]}