{
  "norad_id": 53574,
  "name": "STARLINK-4559",
  "history": [
    {
      "epoch": "2026-03-28T22:16:54.742368",
      "apogee_km": 540.6097673623754,
      "perigee_km": 538.8636960324948,
      "latitude_deg": 51.652285005193214,
      "longitude_deg": -13.472508480073884,
      "semi_major_axis_km": 6917.873731697435,
      "eccentricity": 0.0001262,
      "inclination_deg": 53.2192,
      "raan_deg": 327.4685,
      "arg_perigee_deg": 92.1796,
      "mean_anomaly_deg": 267.934,
      "mean_motion_rev_day": 15.08842178
    }
  ]
}